NORAD_CAT_ID,OBJECT_NAME,OBJECT_TYPE,EPOCH,MEAN_MOTION,ECCENTRICITY,INCLINATION,RA_OF_ASC_NODE,ARG_OF_PERICENTER,MEAN_ANOMALY,BSTAR,MEAN_MOTION_DOT,MEAN_MOTION_DDOT,TLE_LINE0,TLE_LINE1,TLE_LINE2,SEMIMAJOR_AXIS,PERIOD,APOGEE,PERIGEE,DECAYED
54789.0,STARLINK-5446,PAYLOAD,2024-04-05 19:56:11,15.08846072,0.0001239,53.2178,289.145,90.1575,269.9559,3.2388e-05,2.28e-06,0.0,0 STARLINK-5446,1 54789U 22175AH  24096.83068469  .00000228  00000-0  32388-4 0  9995,2 54789  53.2178 289.1450 0001239  90.1575 269.9559 15.08846072 72074,6917.862,95.437,540.584,538.87,0.0
54789.0,STARLINK-5446,PAYLOAD,2024-04-06 05:28:29,15.08852931,0.0001321,53.2186,287.361,89.9735,270.1409,6.2097e-05,7.01e-06,0.0,0 STARLINK-5446,1 54789U 22175AH  24097.22811735  .00000701  00000-0  62097-4 0  9997,2 54789  53.2186 287.3610 0001321  89.9735 270.1409 15.08852931 72133,6917.841,95.437,540.62,538.792,0.0
54789.0,STARLINK-5446,PAYLOAD,2024-04-06 19:46:58,15.08840029,0.0001574,53.2202,284.6865,97.4211,262.696,-6.7727e-05,-1.366e-05,0.0,0 STARLINK-5446,1 54789U 22175AH  24097.82428784 -.00001366  00000-0 -67727-4 0  9996,2 54789  53.2202 284.6865 0001574  97.4211 262.6960 15.08840029 72220,6917.88,95.438,540.834,538.656,0.0
54789.0,STARLINK-5446,PAYLOAD,2024-04-06 21:22:21,15.08832322,0.0001405,53.2207,284.389,92.8149,267.3004,-2.0337e-05,-6.11e-06,0.0,0 STARLINK-5446,1 54789U 22175AH  24097.89053108 -.00000611  00000-0 -20337-4 0  9995,2 54789  53.2207 284.3890 0001405  92.8149 267.3004 15.08832322 74390,6917.904,95.438,540.741,538.797,0.0
54789.0,STARLINK-5446,PAYLOAD,2024-04-07 05:19:17,15.088409,0.0001653,53.2192,282.9011,90.204,269.9141,-7.969e-05,-1.556e-05,0.0,0 STARLINK-5446,1 54789U 22175AH  24098.22172725 -.00001556  00000-0 -79690-4 0  9995,2 54789  53.2192 282.9011 0001653  90.2040 269.9141 15.08840900 74446,6917.878,95.437,540.886,538.599,0.0
54789.0,STARLINK-5446,PAYLOAD,2024-04-07 21:13:08,15.08835841,0.0001531,53.2183,279.927,84.8412,275.2755,2.2111e-05,6.4e-07,0.0,0 STARLINK-5446,1 54789U 22175AH  24098.88412860  .00000064  00000-0  22111-4 0  9991,2 54789  53.2183 279.9270 0001531  84.8412 275.2755 15.08835841 74546,6917.893,95.438,540.817,538.699,0.0
54789.0,STARLINK-5446,PAYLOAD,2024-04-08 05:10:03,15.08844119,0.0001336,53.2187,278.4399,83.0247,277.0898,4.6429e-05,4.51e-06,0.0,0 STARLINK-5446,1 54789U 22175AH  24099.21532260  .00000451  00000-0  46429-4 0  9994,2 54789  53.2187 278.4399 0001336  83.0247 277.0898 15.08844119 72438,6917.868,95.437,540.657,538.809,0.0
54789.0,STARLINK-5446,PAYLOAD,2024-04-08 11:31:36,15.08838778,0.0002082,53.219,277.2499,81.3672,278.7556,0.00011933,1.611e-05,0.0,0 STARLINK-5446,1 54789U 22175AH  24099.48028688  .00001611  00000-0  11933-3 0  9997,2 54789  53.2190 277.2499 0002082  81.3672 278.7556 15.08838778 74639,6917.884,95.438,541.189,538.309,0.0
54789.0,STARLINK-5446,PAYLOAD,2024-04-08 21:03:55,15.08834088,0.0001595,53.2176,275.4664,82.1103,278.007,0.0001473,2.057e-05,0.0,0 STARLINK-5446,1 54789U 22175AH  24099.87772796  .00002057  00000-0  14730-3 0  9999,2 54789  53.2176 275.4664 0001595  82.1103 278.0070 15.08834088 74693,6917.898,95.438,540.867,538.66,0.0
54789.0,STARLINK-5446,PAYLOAD,2024-04-09 05:00:51,15.08835702,0.0001648,53.2189,273.9802,83.2972,276.8208,0.00024514,3.615e-05,0.0,0 STARLINK-5446,1 54789U 22175AH  24100.20892574  .00003615  00000-0  24514-3 0  9998,2 54789  53.2189 273.9802 0001648  83.2972 276.8208 15.08835702 72588,6917.894,95.438,540.899,538.618,0.0
54789.0,STARLINK-5446,PAYLOAD,2024-04-09 20:54:42,15.08842356,0.0001587,53.2197,271.0076,80.3957,279.7214,4.8232e-05,4.8e-06,0.0,0 STARLINK-5446,1 54789U 22175AH  24100.87132609  .00000480  00000-0  48232-4 0  9998,2 54789  53.2197 271.0076 0001587  80.3957 279.7214 15.08842356 74845,6917.873,95.437,540.836,538.64,0.0
54789.0,STARLINK-5446,PAYLOAD,2024-04-10 20:45:29,15.08844268,0.0001457,53.2202,266.5435,98.8503,261.2654,3.1122e-05,2.07e-06,0.0,0 STARLINK-5446,1 54789U 22175AH  24101.86492272  .00000207  00000-0  31122-4 0  9990,2 54789  53.2202 266.5435 0001457  98.8503 261.2654 15.08844268 72832,6917.867,95.437,540.74,538.724,0.0
54789.0,STARLINK-5446,PAYLOAD,2024-04-11 14:14:43,15.08841882,0.0001402,53.22,263.2716,99.6781,260.437,5.8603e-05,6.45e-06,0.0,0 STARLINK-5446,1 54789U 22175AH  24102.59356219  .00000645  00000-0  58603-4 0  9990,2 54789  53.2200 263.2716 0001402  99.6781 260.4370 15.08841882 75101,6917.875,95.437,540.71,538.77,0.0
54789.0,STARLINK-5446,PAYLOAD,2024-04-11 17:25:29,15.08842731,0.000141,53.2179,262.6792,90.2087,269.9067,6.9628e-05,8.2e-06,0.0,0 STARLINK-5446,1 54789U 22175AH  24102.72604165  .00000820  00000-0  69628-4 0  9995,2 54789  53.2179 262.6792 0001410  90.2087 269.9067 15.08842731 75121,6917.872,95.437,540.712,538.762,0.0
54789.0,STARLINK-5446,PAYLOAD,2024-04-12 10:54:44,15.08837789,0.000127,53.2173,259.4092,88.9938,271.12,4.76e-05,4.7e-06,0.0,0 STARLINK-5446,1 54789U 22175AH  24103.45468470  .00000470  00000-0  47600-4 0  9990,2 54789  53.2173 259.4092 0001270  88.9938 271.1200 15.08837789 73078,6917.887,95.438,540.631,538.874,0.0
54789.0,STARLINK-5446,PAYLOAD,2024-04-12 14:05:31,15.0883441,0.0001265,53.2173,258.8142,88.6332,271.4805,2.0528e-05,3.9e-07,0.0,0 STARLINK-5446,1 54789U 22175AH  24103.58716804  .00000039  00000-0  20528-4 0  9992,2 54789  53.2173 258.8142 0001265  88.6332 271.4805 15.08834410 75250,6917.897,95.438,540.638,538.887,0.0
54789.0,STARLINK-5446,PAYLOAD,2024-04-13 13:56:18,15.08836595,0.0001317,53.2174,254.3513,85.5788,274.5355,1.6413e-05,-2.7e-07,0.0,0 STARLINK-5446,1 54789U 22175AH  24104.58076946 -.00000027  00000-0  16413-4 0  9995,2 54789  53.2174 254.3513 0001317  85.5788 274.5355 15.08836595 75400,6917.891,95.438,540.667,538.845,0.0
54789.0,STARLINK-5446,PAYLOAD,2024-04-13 17:07:04,15.08837828,0.0001341,53.2179,253.7571,85.9889,274.1257,2.3046e-05,7.9e-07,0.0,0 STARLINK-5446,1 54789U 22175AH  24104.71324864  .00000079  00000-0  23046-4 0  9991,2 54789  53.2179 253.7571 0001341  85.9889 274.1257 15.08837828 73264,6917.887,95.438,540.68,538.824,0.0
54789.0,STARLINK-5446,PAYLOAD,2024-04-14 16:57:51,15.08837087,0.0001321,53.2181,249.2973,85.5602,274.5542,0.00011321,1.514e-05,0.0,0 STARLINK-5446,1 54789U 22175AH  24105.70685012  .00001514  00000-0  11321-3 0  9993,2 54789  53.2181 249.2973 0001321  85.5602 274.5542 15.08837087 75574,6917.889,95.438,540.668,538.84,0.0
54789.0,STARLINK-5446,PAYLOAD,2024-04-15 08:51:43,15.08838902,0.0001337,53.2183,246.326,85.2053,274.9092,8.3931e-05,1.048e-05,0.0,0 STARLINK-5446,1 54789U 22175AH  24106.36925186  .00001048  00000-0  83931-4 0  9994,2 54789  53.2183 246.3260 0001337  85.2053 274.9092 15.08838902 73510,6917.884,95.438,540.674,538.824,0.0
54789.0,STARLINK-5446,PAYLOAD,2024-04-15 13:37:52,15.08837065,0.0001355,53.2183,245.4321,82.0455,278.0691,6.5782e-05,7.59e-06,0.0,0 STARLINK-5446,1 54789U 22175AH  24106.56797439  .00000759  00000-0  65782-4 0  9996,2 54789  53.2183 245.4321 0001355  82.0455 278.0691 15.08837065 75701,6917.889,95.438,540.692,538.817,0.0
54789.0,STARLINK-5446,PAYLOAD,2024-04-16 13:28:38,15.08858156,0.0001196,53.2166,240.9714,84.4566,275.6563,0.00030334,4.545e-05,0.0,0 STARLINK-5446,1 54789U 22175AH  24107.56155777  .00004545  00000-0  30334-3 0  9991,2 54789  53.2166 240.9714 0001196  84.4566 275.6563 15.08858156 73691,6917.825,95.436,540.517,538.863,0.0
54789.0,STARLINK-5446,PAYLOAD,2024-04-16 15:04:00,15.08878535,0.0001271,53.2157,240.672,98.8424,261.2712,0.00059848,9.26e-05,0.0,0 STARLINK-5446,1 54789U 22175AH  24107.62778722  .00009260  00000-0  59848-3 0  9999,2 54789  53.2157 240.6720 0001271  98.8424 261.2712 15.08878535 75862,6917.763,95.435,540.507,538.748,0.0
54789.0,STARLINK-5446,PAYLOAD,2024-04-16 16:39:23,15.08893465,0.0001193,53.2149,240.376,84.989,275.1238,0.00079285,0.00012371,0.0,0 STARLINK-5446,1 54789U 22175AH  24107.69401790  .00012371  00000-0  79285-3 0  9998,2 54789  53.2149 240.3760 0001193  84.9890 275.1238 15.08893465 73718,6917.717,95.434,540.407,538.757,0.0
54789.0,STARLINK-5446,PAYLOAD,2024-04-17 08:33:19,15.08795202,0.00018,53.2178,237.4018,83.9353,276.1845,-0.00057991,-9.494e-05,0.0,0 STARLINK-5446,1 54789U 22175AH  24108.35648095 -.00009494  00000-0 -57991-3 0  9997,2 54789  53.2178 237.4018 0001800  83.9353 276.1845 15.08795202 73817,6918.017,95.44,541.128,538.637,0.0
54789.0,STARLINK-5446,PAYLOAD,2024-04-17 14:54:51,15.08836915,0.0002046,53.2173,236.2112,93.0056,267.1171,9.5998e-05,1.24e-05,0.0,0 STARLINK-5446,1 54789U 22175AH  24108.62142549  .00001240  00000-0  95998-4 0  9999,2 54789  53.2173 236.2112 0002046  93.0056 267.1171 15.08836915 76013,6917.89,95.438,541.17,538.339,0.0
54789.0,STARLINK-5446,PAYLOAD,2024-04-18 14:45:37,15.08847497,0.0001764,53.2168,231.7498,105.9876,254.1311,2.4874e-05,1.08e-06,0.0,0 STARLINK-5446,1 54789U 22175AH  24109.61502205  .00000108  00000-0  24874-4 0  9995,2 54789  53.2168 231.7498 0001764 105.9876 254.1311 15.08847497 76168,6917.857,95.437,540.943,538.502,0.0
54789.0,STARLINK-5446,PAYLOAD,2024-04-19 13:01:02,15.08848331,0.0001794,53.2163,227.585,87.5465,272.5732,0.0001276,1.744e-05,0.0,0 STARLINK-5446,1 54789U 22175AH  24110.54238469  .00001744  00000-0  12760-3 0  9994,2 54789  53.2163 227.5850 0001794  87.5465 272.5732 15.08848331 74145,6917.855,95.437,540.961,538.479,0.0
54789.0,STARLINK-5446,PAYLOAD,2024-04-20 12:51:50,15.08782476,0.0001953,53.2175,223.1314,96.5633,263.5581,-0.00096548,-0.00015597,0.0,0 STARLINK-5446,1 54789U 22175AH  24111.53600216 -.00015597  00000-0 -96548-3 0  9996,2 54789  53.2175 223.1314 0001953  96.5633 263.5581 15.08782476 74294,6918.056,95.441,541.272,538.57,0.0
54789.0,STARLINK-5446,PAYLOAD,2024-04-21 12:42:36,15.08843896,0.0002019,53.2173,218.6691,108.7946,251.3265,-2.0721e-05,-6.18e-06,0.0,0 STARLINK-5446,1 54789U 22175AH  24112.52958718 -.00000618  00000-0 -20721-4 0  9998,2 54789  53.2173 218.6691 0002019 108.7946 251.3265 15.08843896 76601,6917.868,95.437,541.13,538.337,0.0
